start=new Date('2021-09-21T00:00:00.000Z').valueOf();
sats=[{"FILE":"3121356","OBJECT_ID":"2021-017W","INCLINATION":"53.0580","BSTAR":"0.00008408700000","ECCENTRICITY":"0.00007740","EPHEMERIS_TYPE":"0","EPOCH":"2021-09-20T13:46:39.482112","LAUNCH_DATE":"2021-03-04","MEAN_MOTION_DDOT":"0.0000000000000","MEAN_MOTION_DOT":"0.00000971","REF_FRAME":"TEME","TIME_SYSTEM":"UTC","CLASSIFICATION_TYPE":"U","DECAY_DATE":null,"RA_OF_ASC_NODE":"323.9791","OBJECT_NAME":"STARLINK-2156","GP_ID":"185123343","CENTER_NAME":"EARTH","MEAN_MOTION":"15.06396812","NORAD_CAT_ID":"47742","OBJECT_TYPE":"PAYLOAD","MEAN_ANOMALY":"247.4497","PERIOD":"95.592","ARG_OF_PERICENTER":"112.6574","APOAPSIS":"547.759","MEAN_ELEMENT_THEORY":"SGP4","TLE_LINE1":"1 47742U 21017W   21263.57406808  .00000971  00000-0  84087-4 0  9995","ELEMENT_SET_NO":"999","SITE":"AFETR","RCS_SIZE":"LARGE","TLE_LINE2":"2 47742  53.0580 323.9791 0000774 112.6574 247.4497 15.06396812 32075","REV_AT_EPOCH":"3207","COUNTRY_CODE":"US","SEMIMAJOR_AXIS":"6925.358","PERIAPSIS":"546.687"},{"REF_FRAME":"TEME","CLASSIFICATION_TYPE":"U","TIME_SYSTEM":"UTC","RA_OF_ASC_NODE":"322.6615","DECAY_DATE":null,"OBJECT_NAME":"STARLINK-2157","GP_ID":"185123093","INCLINATION":"53.0575","OBJECT_ID":"2021-017X","FILE":"3121356","BSTAR":"-0.00002732100000","ECCENTRICITY":"0.00010910","EPOCH":"2021-09-20T20:45:58.512384","EPHEMERIS_TYPE":"0","LAUNCH_DATE":"2021-03-04","MEAN_MOTION_DOT":"-0.00000688","MEAN_MOTION_DDOT":"0.0000000000000","TLE_LINE2":"2 47743  53.0575 322.6615 0001091 112.3105 247.8000 15.06388920 32098","RCS_SIZE":"LARGE","REV_AT_EPOCH":"3209","COUNTRY_CODE":"US","SEMIMAJOR_AXIS":"6925.383","PERIAPSIS":"546.492","MEAN_MOTION":"15.06388920","CENTER_NAME":"EARTH","NORAD_CAT_ID":"47743","MEAN_ANOMALY":"247.8000","OBJECT_TYPE":"PAYLOAD","PERIOD":"95.593","ARG_OF_PERICENTER":"112.3105","TLE_LINE1":"1 47743U 21017X   21263.86526056 -.00000688  00000-0 -27321-4 0  9991","APOAPSIS":"548.003","MEAN_ELEMENT_THEORY":"SGP4","SITE":"AFETR","ELEMENT_SET_NO":"999"},{"LAUNCH_DATE":"2021-03-04","EPOCH":"2021-09-20T09:05:21.087456","EPHEMERIS_TYPE":"0","MEAN_MOTION_DOT":"-0.00000880","MEAN_MOTION_DDOT":"0.0000000000000","INCLINATION":"53.0578","OBJECT_ID":"2021-017Y","FILE":"3121163","ECCENTRICITY":"0.00010150","BSTAR":"-0.00004021800000","OBJECT_NAME":"STARLINK-2158","GP_ID":"185096158","REF_FRAME":"TEME","RA_OF_ASC_NODE":"324.8531","DECAY_DATE":null,"CLASSIFICATION_TYPE":"U","TIME_SYSTEM":"UTC","TLE_LINE1":"1 47744U 21017Y   21263.37871629 -.00000880  00000-0 -40218-4 0  9991","MEAN_ELEMENT_THEORY":"SGP4","APOAPSIS":"547.953","ARG_OF_PERICENTER":"109.0584","PERIOD":"95.593","SITE":"AFETR","ELEMENT_SET_NO":"999","CENTER_NAME":"EARTH","MEAN_MOTION":"15.06388181","MEAN_ANOMALY":"251.0515","OBJECT_TYPE":"PAYLOAD","NORAD_CAT_ID":"47744","SEMIMAJOR_AXIS":"6925.385","COUNTRY_CODE":"US","PERIAPSIS":"546.547","TLE_LINE2":"2 47744  53.0578 324.8531 0001015 109.0584 251.0515 15.06388181 32045","RCS_SIZE":"LARGE","REV_AT_EPOCH":"3204"},{"RA_OF_ASC_NODE":"334.1397","DECAY_DATE":null,"CLASSIFICATION_TYPE":"U","TIME_SYSTEM":"UTC","REF_FRAME":"TEME","GP_ID":"185096408","OBJECT_NAME":"STARLINK-2159","ECCENTRICITY":"0.00007240","BSTAR":"-0.00002470700000","INCLINATION":"53.0578","OBJECT_ID":"2021-017Z","FILE":"3121163","MEAN_MOTION_DOT":"-0.00000649","MEAN_MOTION_DDOT":"0.0000000000000","LAUNCH_DATE":"2021-03-04","EPOCH":"2021-09-20T12:57:32.720256","EPHEMERIS_TYPE":"0","REV_AT_EPOCH":"3187","TLE_LINE2":"2 47745  53.0578 334.1397 0000724 103.5766 256.5304 15.06400751 31871","RCS_SIZE":"LARGE","PERIAPSIS":"546.710","SEMIMAJOR_AXIS":"6925.346","COUNTRY_CODE":"US","MEAN_ANOMALY":"256.5304","OBJECT_TYPE":"PAYLOAD","NORAD_CAT_ID":"47745","CENTER_NAME":"EARTH","MEAN_MOTION":"15.06400751","SITE":"AFETR","ELEMENT_SET_NO":"999","TLE_LINE1":"1 47745U 21017Z   21263.53996204 -.00000649  00000-0 -24707-4 0  9995","APOAPSIS":"547.713","MEAN_ELEMENT_THEORY":"SGP4","ARG_OF_PERICENTER":"103.5766","PERIOD":"95.592"},{"MEAN_MOTION":"15.06382891","CENTER_NAME":"EARTH","MEAN_ANOMALY":"265.4582","OBJECT_TYPE":"PAYLOAD","NORAD_CAT_ID":"47746","TLE_LINE1":"1 47746U 21017AA  21263.59895614 -.00001762  00000-0 -99496-4 0  9999","APOAPSIS":"547.948","MEAN_ELEMENT_THEORY":"SGP4","ARG_OF_PERICENTER":"94.6520","PERIOD":"95.593","ELEMENT_SET_NO":"999","SITE":"AFETR","RCS_SIZE":"LARGE","TLE_LINE2":"2 47746  53.0561 333.8571 0000985  94.6520 265.4582 15.06382891 31872","REV_AT_EPOCH":"3187","SEMIMAJOR_AXIS":"6925.401","COUNTRY_CODE":"US","PERIAPSIS":"546.584","OBJECT_ID":"2021-017AA","INCLINATION":"53.0561","FILE":"3121356","ECCENTRICITY":"0.00009850","BSTAR":"-0.00009949600000","LAUNCH_DATE":"2021-03-04","EPOCH":"2021-09-20T14:22:29.810496","EPHEMERIS_TYPE":"0","MEAN_MOTION_DOT":"-0.00001762","MEAN_MOTION_DDOT":"0.0000000000000","REF_FRAME":"TEME","RA_OF_ASC_NODE":"333.8571","DECAY_DATE":null,"CLASSIFICATION_TYPE":"U","TIME_SYSTEM":"UTC","OBJECT_NAME":"STARLINK-2160","GP_ID":"185122843"},{"REF_FRAME":"TEME","CLASSIFICATION_TYPE":"U","TIME_SYSTEM":"UTC","RA_OF_ASC_NODE":"322.6869","DECAY_DATE":null,"OBJECT_NAME":"STARLINK-2161","GP_ID":"185123594","INCLINATION":"53.0582","OBJECT_ID":"2021-017AB","FILE":"3121356","BSTAR":"-0.00004628400000","ECCENTRICITY":"0.00008760","EPOCH":"2021-09-20T20:40:39.857952","EPHEMERIS_TYPE":"0","LAUNCH_DATE":"2021-03-04","MEAN_MOTION_DOT":"-0.00000970","MEAN_MOTION_DDOT":"0.0000000000000","TLE_LINE2":"2 47747  53.0582 322.6869 0000876 119.9766 240.1310 15.06395454 32097","RCS_SIZE":"LARGE","REV_AT_EPOCH":"3209","SEMIMAJOR_AXIS":"6925.362","COUNTRY_CODE":"US","PERIAPSIS":"546.621","MEAN_MOTION":"15.06395454","CENTER_NAME":"EARTH","NORAD_CAT_ID":"47747","MEAN_ANOMALY":"240.1310","OBJECT_TYPE":"PAYLOAD","ARG_OF_PERICENTER":"119.9766","PERIOD":"95.592","TLE_LINE1":"1 47747U 21017AB  21263.86157243 -.00000970  00000-0 -46284-4 0  9996","APOAPSIS":"547.834","MEAN_ELEMENT_THEORY":"SGP4","SITE":"AFETR","ELEMENT_SET_NO":"999"},{"RA_OF_ASC_NODE":"324.8044","DECAY_DATE":null,"CLASSIFICATION_TYPE":"U","TIME_SYSTEM":"UTC","REF_FRAME":"TEME","GP_ID":"185096658","OBJECT_NAME":"STARLINK-2162","ECCENTRICITY":"0.00008820","BSTAR":"0.00003733700000","INCLINATION":"53.0577","OBJECT_ID":"2021-017AC","FILE":"3121163","MEAN_MOTION_DOT":"0.00000275","MEAN_MOTION_DDOT":"0.0000000000000","LAUNCH_DATE":"2021-03-04","EPOCH":"2021-09-20T09:21:16.495200","EPHEMERIS_TYPE":"0","REV_AT_EPOCH":"3199","RCS_SIZE":"LARGE","TLE_LINE2":"2 47748  53.0577 324.8044 0000882 122.3871 237.7203 15.06387261 31991","PERIAPSIS":"546.642","SEMIMAJOR_AXIS":"6925.388","COUNTRY_CODE":"US","MEAN_ANOMALY":"237.7203","OBJECT_TYPE":"PAYLOAD","NORAD_CAT_ID":"47748","MEAN_MOTION":"15.06387261","CENTER_NAME":"EARTH","ELEMENT_SET_NO":"999","SITE":"AFETR","TLE_LINE1":"1 47748U 21017AC  21263.38977425  .00000275  00000-0  37337-4 0  9991","MEAN_ELEMENT_THEORY":"SGP4","APOAPSIS":"547.863","PERIOD":"95.593","ARG_OF_PERICENTER":"122.3871"},{"ECCENTRICITY":"0.00006960","BSTAR":"-0.00005439500000","FILE":"3121356","OBJECT_ID":"2021-017AD","INCLINATION":"53.0561","MEAN_MOTION_DDOT":"0.0000000000000","MEAN_MOTION_DOT":"-0.00001091","LAUNCH_DATE":"2021-03-04","EPHEMERIS_TYPE":"0","EPOCH":"2021-09-20T20:51:16.303680","DECAY_DATE":null,"RA_OF_ASC_NODE":"322.6428","TIME_SYSTEM":"UTC","CLASSIFICATION_TYPE":"U","REF_FRAME":"TEME","GP_ID":"185124596","OBJECT_NAME":"STARLINK-2163","OBJECT_TYPE":"PAYLOAD","MEAN_ANOMALY":"254.9649","NORAD_CAT_ID":"47749","CENTER_NAME":"EARTH","MEAN_MOTION":"15.06396636","ELEMENT_SET_NO":"999","SITE":"AFETR","MEAN_ELEMENT_THEORY":"SGP4","APOAPSIS":"547.706","TLE_LINE1":"1 47749U 21017AD  21263.86893870 -.00001091  00000-0 -54395-4 0  9998","ARG_OF_PERICENTER":"105.1417","PERIOD":"95.592","REV_AT_EPOCH":"3206","TLE_LINE2":"2 47749  53.0561 322.6428 0000696 105.1417 254.9649 15.06396636 32065","RCS_SIZE":"MEDIUM","PERIAPSIS":"546.742","COUNTRY_CODE":"US","SEMIMAJOR_AXIS":"6925.359"},{"NORAD_CAT_ID":"47750","MEAN_ANOMALY":"242.9162","OBJECT_TYPE":"PAYLOAD","CENTER_NAME":"EARTH","MEAN_MOTION":"15.06396858","ELEMENT_SET_NO":"999","SITE":"AFETR","ARG_OF_PERICENTER":"117.1916","PERIOD":"95.592","TLE_LINE1":"1 47750U 21017AE  21263.31604400  .00000813  00000-0  73471-4 0  9994","MEAN_ELEMENT_THEORY":"SGP4","APOAPSIS":"547.828","REV_AT_EPOCH":"3198","RCS_SIZE":"LARGE","TLE_LINE2":"2 47750  53.0569 325.1316 0000874 117.1916 242.9162 15.06396858 31987","PERIAPSIS":"546.618","SEMIMAJOR_AXIS":"6925.358","COUNTRY_CODE":"US","BSTAR":"0.00007347100000","ECCENTRICITY":"0.00008740","INCLINATION":"53.0569","OBJECT_ID":"2021-017AE","FILE":"3121163","MEAN_MOTION_DOT":"0.00000813","MEAN_MOTION_DDOT":"0.0000000000000","EPOCH":"2021-09-20T07:35:06.201600","EPHEMERIS_TYPE":"0","LAUNCH_DATE":"2021-03-04","CLASSIFICATION_TYPE":"U","TIME_SYSTEM":"UTC","RA_OF_ASC_NODE":"325.1316","DECAY_DATE":null,"REF_FRAME":"TEME","GP_ID":"185097160","OBJECT_NAME":"STARLINK-2164"},{"REF_FRAME":"TEME","TIME_SYSTEM":"UTC","CLASSIFICATION_TYPE":"U","DECAY_DATE":null,"RA_OF_ASC_NODE":"312.6389","OBJECT_NAME":"STARLINK-2168","GP_ID":"185123094","FILE":"3121356","INCLINATION":"53.0486","OBJECT_ID":"2021-017AF","BSTAR":"-0.00008152700000","ECCENTRICITY":"0.00010790","EPHEMERIS_TYPE":"0","EPOCH":"2021-09-20T21:03:13.526496","LAUNCH_DATE":"2021-03-04","MEAN_MOTION_DDOT":"0.0000000000000","MEAN_MOTION_DOT":"-0.00001495","TLE_LINE2":"2 47751  53.0486 312.6389 0001079 110.3761 249.7344 15.06398062 32211","RCS_SIZE":"LARGE","REV_AT_EPOCH":"3221","COUNTRY_CODE":"US","SEMIMAJOR_AXIS":"6925.354","PERIAPSIS":"546.472","MEAN_MOTION":"15.06398062","CENTER_NAME":"EARTH","NORAD_CAT_ID":"47751","OBJECT_TYPE":"PAYLOAD","MEAN_ANOMALY":"249.7344","ARG_OF_PERICENTER":"110.3761","PERIOD":"95.592","MEAN_ELEMENT_THEORY":"SGP4","APOAPSIS":"547.967","TLE_LINE1":"1 47751U 21017AF  21263.87723989 -.00001495  00000-0 -81527-4 0  9990","ELEMENT_SET_NO":"999","SITE":"AFETR"}];
